KUIPER-00272            
1 68588U 26072R   26197.63668388 -.00000103  00000+0  15549-4 0  9997
2 68588  51.8991  62.9113 0000933 115.8385 244.2673 14.79935596 15516
KUIPER-00285            
1 68589U 26072S   26197.83335647 -.00016481  00000+0 -21369-2 0  9991
2 68589  51.9044  42.1193 0001921 142.2841  70.8461 14.79955892  5815
KUIPER-00286            
1 68590U 26072T   26197.83335647 -.00086287  00000+0 -11680-1 0  9998
2 68590  51.9010  39.1876 0004093 159.5479 235.5489 14.79033592  5033
KUIPER-00289            
1 68591U 26072U   26197.31520601  .00000902  00000+0  14731-3 0  9998
2 68591  51.9002  49.3491 0000786 127.4435 232.6599 14.79934901 15677
KUIPER-00290            
1 68592U 26072V   26197.83335647 -.00028763  00000+0 -40860-2 0  9998
2 68592  51.9020  45.5867 0001094 116.2273 342.3885 14.76423678  5129
KUIPER-00293            
1 68593U 26072W   26197.64206544 -.00000092  00000+0  17027-4 0  9996
2 68593  51.8998  57.8875 0003029 134.8193 225.3016 14.79933375 15585
KUIPER-00294            
1 68594U 26072X   26197.83335647 -.00017063  00000+0 -22152-2 0  9995
2 68594  51.8990  44.5569 0001829  49.3821 178.8003 14.79924959  4567
KUIPER-00296            
1 68595U 26072Y   26196.93410720  .00012456  00000+0  34562-3 0  9990
2 68595  51.8709  37.8144 0009578 123.4837 236.7066 15.37258668 15804
KUIPER-00297            
1 68596U 26072Z   26197.58968433  .00000836  00000+0  14995-3 0  9999
2 68596  51.9006  57.9172 0001177 138.2276 221.8775 14.76358729 15586
KUIPER-00300            
1 68597U 26072AA  26196.97225076  .00000882  00000+0  15608-3 0  9994
2 68597  51.9038  57.6902 0001864 134.6430 225.4684 14.76474268 15536
KUIPER-00301            
1 68598U 26072AB  26197.57918468  .00017679  00000+0  46254-3 0  9999
2 68598  51.8654  34.5899 0009613 128.2122 231.9732 15.38773953 15905
KUIPER-00304            
1 68599U 26072AC  26197.85316293  .00004985  00000+0  13929-3 0  9998
2 68599  51.8673  33.4365 0011263 143.4364 216.7394 15.38483919 15943
KUIPER-00317            
1 68600U 26072AD  26197.55424985  .00000509  00000+0  95719-4 0  9992
2 68600  51.9020  45.8038 0000999  92.6692 267.4384 14.79935126 15746
KUIPER-00320            
1 68601U 26072AE  26197.61638833  .00001638  00000+0  24383-3 0  9991
2 68601  51.9030  50.5181 0000681 106.2809 253.8228 14.79926660 15682
KUIPER-00299            
1 68864U 26095A   26197.16990166  .00001005  00000+0  17353-3 0  9994
2 68864  51.9002 121.0869 0001393 275.8716  84.2086 14.76473977 11926
KUIPER-00353            
1 68865U 26095B   26197.83335647 -.00080310  00000+0 -10317-1 0  9995
2 68865  51.9000 104.5719 0002683  42.7661 346.2446 14.81185990  5585
