{"fetched_at":"2026-07-17T06:37:49.595Z","source":"https://celestrak.org/NORAD/elements/gp.php?GROUP=kuiper&FORMAT=JSON","constellation":"kuiper","records":[{"OBJECT_NAME":"KUIPER-00272","OBJECT_ID":"2026-072R","EPOCH":"2026-07-16T15:16:49.487232","CLASSIFICATION_TYPE":"U","MEAN_MOTION":14.79935596,"ECCENTRICITY":0.0000933,"INCLINATION":51.8991,"RA_OF_ASC_NODE":62.9113,"ARG_OF_PERICENTER":115.8385,"MEAN_ANOMALY":244.2673,"EPHEMERIS_TYPE":0,"NORAD_CAT_ID":68588,"ELEMENT_SET_NO":999,"REV_AT_EPOCH":1551,"BSTAR":0.000015549,"MEAN_MOTION_DOT":-0.00000103,"MEAN_MOTION_DDOT":0},{"OBJECT_NAME":"KUIPER-00285","OBJECT_ID":"2026-072S","EPOCH":"2026-07-16T20:00:01.999008","CLASSIFICATION_TYPE":"U","MEAN_MOTION":14.79955892,"ECCENTRICITY":0.0001921,"INCLINATION":51.9044,"RA_OF_ASC_NODE":42.1193,"ARG_OF_PERICENTER":142.2841,"MEAN_ANOMALY":70.8461,"EPHEMERIS_TYPE":0,"NORAD_CAT_ID":68589,"ELEMENT_SET_NO":999,"REV_AT_EPOCH":581,"BSTAR":-0.0021369,"MEAN_MOTION_DOT":-0.00016481,"MEAN_MOTION_DDOT":0},{"OBJECT_NAME":"KUIPER-00286","OBJECT_ID":"2026-072T","EPOCH":"2026-07-16T20:00:01.999008","CLASSIFICATION_TYPE":"U","MEAN_MOTION":14.79033592,"ECCENTRICITY":0.0004093,"INCLINATION":51.901,"RA_OF_ASC_NODE":39.1876,"ARG_OF_PERICENTER":159.5479,"MEAN_ANOMALY":235.5489,"EPHEMERIS_TYPE":0,"NORAD_CAT_ID":68590,"ELEMENT_SET_NO":999,"REV_AT_EPOCH":503,"BSTAR":-0.01168,"MEAN_MOTION_DOT":-0.00086287,"MEAN_MOTION_DDOT":0},{"OBJECT_NAME":"KUIPER-00289","OBJECT_ID":"2026-072U","EPOCH":"2026-07-16T07:33:53.799264","CLASSIFICATION_TYPE":"U","MEAN_MOTION":14.79934901,"ECCENTRICITY":0.0000786,"INCLINATION":51.9002,"RA_OF_ASC_NODE":49.3491,"ARG_OF_PERICENTER":127.4435,"MEAN_ANOMALY":232.6599,"EPHEMERIS_TYPE":0,"NORAD_CAT_ID":68591,"ELEMENT_SET_NO":999,"REV_AT_EPOCH":1567,"BSTAR":0.00014731,"MEAN_MOTION_DOT":0.00000902,"MEAN_MOTION_DDOT":0},{"OBJECT_NAME":"KUIPER-00290","OBJECT_ID":"2026-072V","EPOCH":"2026-07-16T20:00:01.999008","CLASSIFICATION_TYPE":"U","MEAN_MOTION":14.76423678,"ECCENTRICITY":0.0001094,"INCLINATION":51.902,"RA_OF_ASC_NODE":45.5867,"ARG_OF_PERICENTER":116.2273,"MEAN_ANOMALY":342.3885,"EPHEMERIS_TYPE":0,"NORAD_CAT_ID":68592,"ELEMENT_SET_NO":999,"REV_AT_EPOCH":512,"BSTAR":-0.004086,"MEAN_MOTION_DOT":-0.00028763,"MEAN_MOTION_DDOT":0},{"OBJECT_NAME":"KUIPER-00293","OBJECT_ID":"2026-072W","EPOCH":"2026-07-16T15:24:34.454016","CLASSIFICATION_TYPE":"U","MEAN_MOTION":14.79933375,"ECCENTRICITY":0.0003029,"INCLINATION":51.8998,"RA_OF_ASC_NODE":57.8875,"ARG_OF_PERICENTER":134.8193,"MEAN_ANOMALY":225.3016,"EPHEMERIS_TYPE":0,"NORAD_CAT_ID":68593,"ELEMENT_SET_NO":999,"REV_AT_EPOCH":1558,"BSTAR":0.000017027,"MEAN_MOTION_DOT":-9.2e-7,"MEAN_MOTION_DDOT":0},{"OBJECT_NAME":"KUIPER-00294","OBJECT_ID":"2026-072X","EPOCH":"2026-07-16T20:00:01.999008","CLASSIFICATION_TYPE":"U","MEAN_MOTION":14.79924959,"ECCENTRICITY":0.0001829,"INCLINATION":51.899,"RA_OF_ASC_NODE":44.5569,"ARG_OF_PERICENTER":49.3821,"MEAN_ANOMALY":178.8003,"EPHEMERIS_TYPE":0,"NORAD_CAT_ID":68594,"ELEMENT_SET_NO":999,"REV_AT_EPOCH":456,"BSTAR":-0.0022152,"MEAN_MOTION_DOT":-0.00017063,"MEAN_MOTION_DDOT":0},{"OBJECT_NAME":"KUIPER-00296","OBJECT_ID":"2026-072Y","EPOCH":"2026-07-15T22:25:06.862080","CLASSIFICATION_TYPE":"U","MEAN_MOTION":15.37258668,"ECCENTRICITY":0.0009578,"INCLINATION":51.8709,"RA_OF_ASC_NODE":37.8144,"ARG_OF_PERICENTER":123.4837,"MEAN_ANOMALY":236.7066,"EPHEMERIS_TYPE":0,"NORAD_CAT_ID":68595,"ELEMENT_SET_NO":999,"REV_AT_EPOCH":1580,"BSTAR":0.00034562,"MEAN_MOTION_DOT":0.00012456,"MEAN_MOTION_DDOT":0},{"OBJECT_NAME":"KUIPER-00297","OBJECT_ID":"2026-072Z","EPOCH":"2026-07-16T14:09:08.726112","CLASSIFICATION_TYPE":"U","MEAN_MOTION":14.76358729,"ECCENTRICITY":0.0001177,"INCLINATION":51.9006,"RA_OF_ASC_NODE":57.9172,"ARG_OF_PERICENTER":138.2276,"MEAN_ANOMALY":221.8775,"EPHEMERIS_TYPE":0,"NORAD_CAT_ID":68596,"ELEMENT_SET_NO":999,"REV_AT_EPOCH":1558,"BSTAR":0.00014995,"MEAN_MOTION_DOT":0.00000836,"MEAN_MOTION_DDOT":0},{"OBJECT_NAME":"KUIPER-00300","OBJECT_ID":"2026-072AA","EPOCH":"2026-07-15T23:20:02.465664","CLASSIFICATION_TYPE":"U","MEAN_MOTION":14.76474268,"ECCENTRICITY":0.00018641,"INCLINATION":51.9038,"RA_OF_ASC_NODE":57.6902,"ARG_OF_PERICENTER":134.643,"MEAN_ANOMALY":225.4684,"EPHEMERIS_TYPE":0,"NORAD_CAT_ID":68597,"ELEMENT_SET_NO":999,"REV_AT_EPOCH":1553,"BSTAR":0.00015607861,"MEAN_MOTION_DOT":0.00000882,"MEAN_MOTION_DDOT":0},{"OBJECT_NAME":"KUIPER-00301","OBJECT_ID":"2026-072AB","EPOCH":"2026-07-16T13:54:01.556352","CLASSIFICATION_TYPE":"U","MEAN_MOTION":15.38773953,"ECCENTRICITY":0.0009613,"INCLINATION":51.8654,"RA_OF_ASC_NODE":34.5899,"ARG_OF_PERICENTER":128.2122,"MEAN_ANOMALY":231.9732,"EPHEMERIS_TYPE":0,"NORAD_CAT_ID":68598,"ELEMENT_SET_NO":999,"REV_AT_EPOCH":1590,"BSTAR":0.00046254,"MEAN_MOTION_DOT":0.00017679,"MEAN_MOTION_DDOT":0},{"OBJECT_NAME":"KUIPER-00304","OBJECT_ID":"2026-072AC","EPOCH":"2026-07-16T20:28:33.277152","CLASSIFICATION_TYPE":"U","MEAN_MOTION":15.38483919,"ECCENTRICITY":0.0011263,"INCLINATION":51.8673,"RA_OF_ASC_NODE":33.4365,"ARG_OF_PERICENTER":143.4364,"MEAN_ANOMALY":216.7394,"EPHEMERIS_TYPE":0,"NORAD_CAT_ID":68599,"ELEMENT_SET_NO":999,"REV_AT_EPOCH":1594,"BSTAR":0.00013929,"MEAN_MOTION_DOT":0.00004985,"MEAN_MOTION_DDOT":0},{"OBJECT_NAME":"KUIPER-00317","OBJECT_ID":"2026-072AD","EPOCH":"2026-07-16T13:18:07.187040","CLASSIFICATION_TYPE":"U","MEAN_MOTION":14.79935126,"ECCENTRICITY":0.0000999,"INCLINATION":51.902,"RA_OF_ASC_NODE":45.8038,"ARG_OF_PERICENTER":92.6692,"MEAN_ANOMALY":267.4384,"EPHEMERIS_TYPE":0,"NORAD_CAT_ID":68600,"ELEMENT_SET_NO":999,"REV_AT_EPOCH":1574,"BSTAR":0.000095719,"MEAN_MOTION_DOT":0.00000509,"MEAN_MOTION_DDOT":0},{"OBJECT_NAME":"KUIPER-00320","OBJECT_ID":"2026-072AE","EPOCH":"2026-07-16T14:47:35.951712","CLASSIFICATION_TYPE":"U","MEAN_MOTION":14.7992666,"ECCENTRICITY":0.0000681,"INCLINATION":51.903,"RA_OF_ASC_NODE":50.5181,"ARG_OF_PERICENTER":106.2809,"MEAN_ANOMALY":253.8228,"EPHEMERIS_TYPE":0,"NORAD_CAT_ID":68601,"ELEMENT_SET_NO":999,"REV_AT_EPOCH":1568,"BSTAR":0.00024383,"MEAN_MOTION_DOT":0.00001638,"MEAN_MOTION_DDOT":0},{"OBJECT_NAME":"KUIPER-00299","OBJECT_ID":"2026-095A","EPOCH":"2026-07-16T04:04:39.503424","CLASSIFICATION_TYPE":"U","MEAN_MOTION":14.76473977,"ECCENTRICITY":0.00013938,"INCLINATION":51.9002,"RA_OF_ASC_NODE":121.0869,"ARG_OF_PERICENTER":275.8716,"MEAN_ANOMALY":84.2086,"EPHEMERIS_TYPE":0,"NORAD_CAT_ID":68864,"ELEMENT_SET_NO":999,"REV_AT_EPOCH":1192,"BSTAR":0.00017352868,"MEAN_MOTION_DOT":0.00001005,"MEAN_MOTION_DDOT":0},{"OBJECT_NAME":"KUIPER-00353","OBJECT_ID":"2026-095B","EPOCH":"2026-07-16T20:00:01.999008","CLASSIFICATION_TYPE":"U","MEAN_MOTION":14.8118599,"ECCENTRICITY":0.0002683,"INCLINATION":51.9,"RA_OF_ASC_NODE":104.5719,"ARG_OF_PERICENTER":42.7661,"MEAN_ANOMALY":346.2446,"EPHEMERIS_TYPE":0,"NORAD_CAT_ID":68865,"ELEMENT_SET_NO":999,"REV_AT_EPOCH":558,"BSTAR":-0.010317,"MEAN_MOTION_DOT":-0.0008031,"MEAN_MOTION_DDOT":0}]}
